[{"sat":{"ORDINAL":"1","COMMENT":"GENERATED VIA SPACETRACK.ORG API","ORIGINATOR":"JSPOC","NORAD_CAT_ID":"7530","OBJECT_NAME":"OSCAR 7","OBJECT_TYPE":"PAYLOAD","CLASSIFICATION_TYPE":"U","INTLDES":"74089B","EPOCH":"2018-10-12 11:53:15","EPOCH_MICROSECONDS":"912384","MEAN_MOTION":"12.53634793","ECCENTRICITY":"0.0012409","INCLINATION":"101.7033","RA_OF_ASC_NODE":"251.1197","ARG_OF_PERICENTER":"107.2908","MEAN_ANOMALY":"6.7641","EPHEMERIS_TYPE":"0","ELEMENT_SET_NO":"999","REV_AT_EPOCH":"929","BSTAR":"6.091e-06","MEAN_MOTION_DOT":"-4.4e-07","MEAN_MOTION_DDOT":"0","FILE":"2344048","TLE_LINE0":"0 OSCAR 7","TLE_LINE1":"1  7530U 74089B   18285.49532306 -.00000044  00000-0  60910-5 0  9999","TLE_LINE2":"2  7530 101.7033 251.1197 0012409 107.2908   6.7641 12.53634793  9298","OBJECT_ID":"1974-089B","OBJECT_NUMBER":"7530","SEMIMAJOR_AXIS":"7827.465","PERIOD":"114.865","APOGEE":"1459.043","PERIGEE":"1439.617"},"latlng":{"lat":-80.29650565789557,"lng":-57.30332185399993}},{"sat":{"ORDINAL":"1","COMMENT":"GENERATED VIA SPACETRACK.ORG API","ORIGINATOR":"JSPOC","NORAD_CAT_ID":"7530","OBJECT_NAME":"OSCAR 7","OBJECT_TYPE":"PAYLOAD","CLASSIFICATION_TYPE":"U","INTLDES":"74089B","EPOCH":"2018-10-12 11:53:15","EPOCH_MICROSECONDS":"912384","MEAN_MOTION":"12.53634793","ECCENTRICITY":"0.0012409","INCLINATION":"101.7033","RA_OF_ASC_NODE":"251.1197","ARG_OF_PERICENTER":"107.2908","MEAN_ANOMALY":"6.7641","EPHEMERIS_TYPE":"0","ELEMENT_SET_NO":"999","REV_AT_EPOCH":"929","BSTAR":"6.091e-06","MEAN_MOTION_DOT":"-4.4e-07","MEAN_MOTION_DDOT":"0","FILE":"2344048","TLE_LINE0":"0 OSCAR 7","TLE_LINE1":"1  7530U 74089B   18285.49532306 -.00000044  00000-0  60910-5 0  9999","TLE_LINE2":"2  7530 101.7033 251.1197 0012409 107.2908   6.7641 12.53634793  9298","OBJECT_ID":"1974-089B","OBJECT_NUMBER":"7530","SEMIMAJOR_AXIS":"7827.465","PERIOD":"114.865","APOGEE":"1459.043","PERIGEE":"1439.617"},"latlng":{"lat":-30.49210483329004,"lng":154.92642938792258}},{"sat":{"ORDINAL":"1","COMMENT":"GENERATED VIA SPACETRACK.ORG API","ORIGINATOR":"JSPOC","NORAD_CAT_ID":"7530","OBJECT_NAME":"OSCAR 7","OBJECT_TYPE":"PAYLOAD","CLASSIFICATION_TYPE":"U","INTLDES":"74089B","EPOCH":"2018-10-12 11:53:15","EPOCH_MICROSECONDS":"912384","MEAN_MOTION":"12.53634793","ECCENTRICITY":"0.0012409","INCLINATION":"101.7033","RA_OF_ASC_NODE":"251.1197","ARG_OF_PERICENTER":"107.2908","MEAN_ANOMALY":"6.7641","EPHEMERIS_TYPE":"0","ELEMENT_SET_NO":"999","REV_AT_EPOCH":"929","BSTAR":"6.091e-06","MEAN_MOTION_DOT":"-4.4e-07","MEAN_MOTION_DDOT":"0","FILE":"2344048","TLE_LINE0":"0 OSCAR 7","TLE_LINE1":"1  7530U 74089B   18285.49532306 -.00000044  00000-0  60910-5 0  9999","TLE_LINE2":"2  7530 101.7033 251.1197 0012409 107.2908   6.7641 12.53634793  9298","OBJECT_ID":"1974-089B","OBJECT_NUMBER":"7530","SEMIMAJOR_AXIS":"7827.465","PERIOD":"114.865","APOGEE":"1459.043","PERIGEE":"1439.617"},"latlng":{"lat":-50.05417876875598,"lng":-38.813354054579406}},{"sat":{"ORDINAL":"1","COMMENT":"GENERATED VIA SPACETRACK.ORG API","ORIGINATOR":"JSPOC","NORAD_CAT_ID":"7530","OBJECT_NAME":"OSCAR 7","OBJECT_TYPE":"PAYLOAD","CLASSIFICATION_TYPE":"U","INTLDES":"74089B","EPOCH":"2018-10-12 11:53:15","EPOCH_MICROSECONDS":"912384","MEAN_MOTION":"12.53634793","ECCENTRICITY":"0.0012409","INCLINATION":"101.7033","RA_OF_ASC_NODE":"251.1197","ARG_OF_PERICENTER":"107.2908","MEAN_ANOMALY":"6.7641","EPHEMERIS_TYPE":"0","ELEMENT_SET_NO":"999","REV_AT_EPOCH":"929","BSTAR":"6.091e-06","MEAN_MOTION_DOT":"-4.4e-07","MEAN_MOTION_DDOT":"0","FILE":"2344048","TLE_LINE0":"0 OSCAR 7","TLE_LINE1":"1  7530U 74089B   18285.49532306 -.00000044  00000-0  60910-5 0  9999","TLE_LINE2":"2  7530 101.7033 251.1197 0012409 107.2908   6.7641 12.53634793  9298","OBJECT_ID":"1974-089B","OBJECT_NUMBER":"7530","SEMIMAJOR_AXIS":"7827.465","PERIOD":"114.865","APOGEE":"1459.043","PERIGEE":"1439.617"},"latlng":{"lat":-81.37697820327611,"lng":-131.24820203974733}},{"sat":{"ORDINAL":"1","COMMENT":"GENERATED VIA SPACETRACK.ORG API","ORIGINATOR":"JSPOC","NORAD_CAT_ID":"7530","OBJECT_NAME":"OSCAR 7","OBJECT_TYPE":"PAYLOAD","CLASSIFICATION_TYPE":"U","INTLDES":"74089B","EPOCH":"2018-10-12 11:53:15","EPOCH_MICROSECONDS":"912384","MEAN_MOTION":"12.53634793","ECCENTRICITY":"0.0012409","INCLINATION":"101.7033","RA_OF_ASC_NODE":"251.1197","ARG_OF_PERICENTER":"107.2908","MEAN_ANOMALY":"6.7641","EPHEMERIS_TYPE":"0","ELEMENT_SET_NO":"999","REV_AT_EPOCH":"929","BSTAR":"6.091e-06","MEAN_MOTION_DOT":"-4.4e-07","MEAN_MOTION_DDOT":"0","FILE":"2344048","TLE_LINE0":"0 OSCAR 7","TLE_LINE1":"1  7530U 74089B   18285.49532306 -.00000044  00000-0  60910-5 0  9999","TLE_LINE2":"2  7530 101.7033 251.1197 0012409 107.2908   6.7641 12.53634793  9298","OBJECT_ID":"1974-089B","OBJECT_NUMBER":"7530","SEMIMAJOR_AXIS":"7827.465","PERIOD":"114.865","APOGEE":"1459.043","PERIGEE":"1439.617"},"latlng":{"lat":-53.290300775819105,"lng":163.34667509752813}},{"sat":{"ORDINAL":"1","COMMENT":"GENERATED VIA SPACETRACK.ORG API","ORIGINATOR":"JSPOC","NORAD_CAT_ID":"7530","OBJECT_NAME":"OSCAR 7","OBJECT_TYPE":"PAYLOAD","CLASSIFICATION_TYPE":"U","INTLDES":"74089B","EPOCH":"2018-10-12 11:53:15","EPOCH_MICROSECONDS":"912384","MEAN_MOTION":"12.53634793","ECCENTRICITY":"0.0012409","INCLINATION":"101.7033","RA_OF_ASC_NODE":"251.1197","ARG_OF_PERICENTER":"107.2908","MEAN_ANOMALY":"6.7641","EPHEMERIS_TYPE":"0","ELEMENT_SET_NO":"999","REV_AT_EPOCH":"929","BSTAR":"6.091e-06","MEAN_MOTION_DOT":"-4.4e-07","MEAN_MOTION_DDOT":"0","FILE":"2344048","TLE_LINE0":"0 OSCAR 7","TLE_LINE1":"1  7530U 74089B   18285.49532306 -.00000044  00000-0  60910-5 0  9999","TLE_LINE2":"2  7530 101.7033 251.1197 0012409 107.2908   6.7641 12.53634793  9298","OBJECT_ID":"1974-089B","OBJECT_NUMBER":"7530","SEMIMAJOR_AXIS":"7827.465","PERIOD":"114.865","APOGEE":"1459.043","PERIGEE":"1439.617"},"latlng":{"lat":-2.399426094091695,"lng":-175.74878969657007}},{"sat":{"ORDINAL":"1","COMMENT":"GENERATED VIA SPACETRACK.ORG API","ORIGINATOR":"JSPOC","NORAD_CAT_ID":"7530","OBJECT_NAME":"OSCAR 7","OBJECT_TYPE":"PAYLOAD","CLASSIFICATION_TYPE":"U","INTLDES":"74089B","EPOCH":"2018-10-12 11:53:15","EPOCH_MICROSECONDS":"912384","MEAN_MOTION":"12.53634793","ECCENTRICITY":"0.0012409","INCLINATION":"101.7033","RA_OF_ASC_NODE":"251.1197","ARG_OF_PERICENTER":"107.2908","MEAN_ANOMALY":"6.7641","EPHEMERIS_TYPE":"0","ELEMENT_SET_NO":"999","REV_AT_EPOCH":"929","BSTAR":"6.091e-06","MEAN_MOTION_DOT":"-4.4e-07","MEAN_MOTION_DDOT":"0","FILE":"2344048","TLE_LINE0":"0 OSCAR 7","TLE_LINE1":"1  7530U 74089B   18285.49532306 -.00000044  00000-0  60910-5 0  9999","TLE_LINE2":"2  7530 101.7033 251.1197 0012409 107.2908   6.7641 12.53634793  9298","OBJECT_ID":"1974-089B","OBJECT_NUMBER":"7530","SEMIMAJOR_AXIS":"7827.465","PERIOD":"114.865","APOGEE":"1459.043","PERIGEE":"1439.617"},"latlng":{"lat":-19.321900414865304,"lng":-13.079051608500265}},{"sat":{"ORDINAL":"1","COMMENT":"GENERATED VIA SPACETRACK.ORG API","ORIGINATOR":"JSPOC","NORAD_CAT_ID":"7530","OBJECT_NAME":"OSCAR 7","OBJECT_TYPE":"PAYLOAD","CLASSIFICATION_TYPE":"U","INTLDES":"74089B","EPOCH":"2018-10-12 11:53:15","EPOCH_MICROSECONDS":"912384","MEAN_MOTION":"12.53634793","ECCENTRICITY":"0.0012409","INCLINATION":"101.7033","RA_OF_ASC_NODE":"251.1197","ARG_OF_PERICENTER":"107.2908","MEAN_ANOMALY":"6.7641","EPHEMERIS_TYPE":"0","ELEMENT_SET_NO":"999","REV_AT_EPOCH":"929","BSTAR":"6.091e-06","MEAN_MOTION_DOT":"-4.4e-07","MEAN_MOTION_DDOT":"0","FILE":"2344048","TLE_LINE0":"0 OSCAR 7","TLE_LINE1":"1  7530U 74089B   18285.49532306 -.00000044  00000-0  60910-5 0  9999","TLE_LINE2":"2  7530 101.7033 251.1197 0012409 107.2908   6.7641 12.53634793  9298","OBJECT_ID":"1974-089B","OBJECT_NUMBER":"7530","SEMIMAJOR_AXIS":"7827.465","PERIOD":"114.865","APOGEE":"1459.043","PERIGEE":"1439.617"},"latlng":{"lat":-0.016096371626437483,"lng":144.78699637468029}},{"sat":{"ORDINAL":"1","COMMENT":"GENERATED VIA SPACETRACK.ORG API","ORIGINATOR":"JSPOC","NORAD_CAT_ID":"7530","OBJECT_NAME":"OSCAR 7","OBJECT_TYPE":"PAYLOAD","CLASSIFICATION_TYPE":"U","INTLDES":"74089B","EPOCH":"2018-10-12 11:53:15","EPOCH_MICROSECONDS":"912384","MEAN_MOTION":"12.53634793","ECCENTRICITY":"0.0012409","INCLINATION":"101.7033","RA_OF_ASC_NODE":"251.1197","ARG_OF_PERICENTER":"107.2908","MEAN_ANOMALY":"6.7641","EPHEMERIS_TYPE":"0","ELEMENT_SET_NO":"999","REV_AT_EPOCH":"929","BSTAR":"6.091e-06","MEAN_MOTION_DOT":"-4.4e-07","MEAN_MOTION_DDOT":"0","FILE":"2344048","TLE_LINE0":"0 OSCAR 7","TLE_LINE1":"1  7530U 74089B   18285.49532306 -.00000044  00000-0  60910-5 0  9999","TLE_LINE2":"2  7530 101.7033 251.1197 0012409 107.2908   6.7641 12.53634793  9298","OBJECT_ID":"1974-089B","OBJECT_NUMBER":"7530","SEMIMAJOR_AXIS":"7827.465","PERIOD":"114.865","APOGEE":"1459.043","PERIGEE":"1439.617"},"latlng":{"lat":-74.871687519938,"lng":172.08296572246388}},{"sat":{"ORDINAL":"1","COMMENT":"GENERATED VIA SPACETRACK.ORG API","ORIGINATOR":"JSPOC","NORAD_CAT_ID":"7530","OBJECT_NAME":"OSCAR 7","OBJECT_TYPE":"PAYLOAD","CLASSIFICATION_TYPE":"U","INTLDES":"74089B","EPOCH":"2018-10-12 11:53:15","EPOCH_MICROSECONDS":"912384","MEAN_MOTION":"12.53634793","ECCENTRICITY":"0.0012409","INCLINATION":"101.7033","RA_OF_ASC_NODE":"251.1197","ARG_OF_PERICENTER":"107.2908","MEAN_ANOMALY":"6.7641","EPHEMERIS_TYPE":"0","ELEMENT_SET_NO":"999","REV_AT_EPOCH":"929","BSTAR":"6.091e-06","MEAN_MOTION_DOT":"-4.4e-07","MEAN_MOTION_DDOT":"0","FILE":"2344048","TLE_LINE0":"0 OSCAR 7","TLE_LINE1":"1  7530U 74089B   18285.49532306 -.00000044  00000-0  60910-5 0  9999","TLE_LINE2":"2  7530 101.7033 251.1197 0012409 107.2908   6.7641 12.53634793  9298","OBJECT_ID":"1974-089B","OBJECT_NUMBER":"7530","SEMIMAJOR_AXIS":"7827.465","PERIOD":"114.865","APOGEE":"1459.043","PERIGEE":"1439.617"},"latlng":{"lat":-54.64296774901483,"lng":-76.9953659444459}}]